[Satellite]
VERSION=1.1
NAME=OSCAR 31
NICKNAME=OSCAR 31
TLE1=1 19420U 88074B   17186.17694213  .00000040  00000-0  53045-4 0  9994
TLE2=2 19420  89.9823  18.9587 0095712  32.1963 102.2760 13.42179758412971
